start=new Date('2023-04-03T00:00:00.000Z').valueOf();
sats=[{"TLE_LINE1":"1 52870U 22062AS  23092.88730967  .00007443  00000-0  48515-3 0  9992","TLE_LINE2":"2 52870  53.2146 155.6300 0001247  85.5733 274.5401 15.08848536 44122","ECCENTRICITY":"0.00012470","OBJECT_ID":"2022-062AS","REV_AT_EPOCH":"4412","EPHEMERIS_TYPE":"0","OBJECT_TYPE":"PAYLOAD","DECAY_DATE":null,"ELEMENT_SET_NO":"999","BSTAR":"0.00048515000000","MEAN_ANOMALY":"274.5401","NORAD_CAT_ID":"52870","TIME_SYSTEM":"UTC","LAUNCH_DATE":"2022-06-17","PERIOD":"95.437","SEMIMAJOR_AXIS":"6917.854","OBJECT_NAME":"STARLINK-4195","RCS_SIZE":"LARGE","SITE":"AFETR","MEAN_MOTION":"15.08848536","MEAN_MOTION_DDOT":"0.0000000000000","MEAN_MOTION_DOT":"0.00007443","MEAN_ELEMENT_THEORY":"SGP4","REF_FRAME":"TEME","CENTER_NAME":"EARTH","INCLINATION":"53.2146","CLASSIFICATION_TYPE":"U","RA_OF_ASC_NODE":"155.6300","PERIAPSIS":"538.857","APOAPSIS":"540.582","EPOCH":"2023-04-02T21:17:43.555488","GP_ID":"229352264","COUNTRY_CODE":"US","ARG_OF_PERICENTER":"85.5733","FILE":"3878419"},{"LAUNCH_DATE":"2022-06-17","NORAD_CAT_ID":"52871","TIME_SYSTEM":"UTC","MEAN_ANOMALY":"156.4618","OBJECT_NAME":"STARLINK-4207","RCS_SIZE":"LARGE","PERIOD":"95.438","SEMIMAJOR_AXIS":"6917.887","REV_AT_EPOCH":"4474","EPHEMERIS_TYPE":"0","OBJECT_ID":"2022-062AT","TLE_LINE2":"2 52871  53.2159 145.7265 0000429 203.6355 156.4618 15.08837955 44740","ECCENTRICITY":"0.00004290","TLE_LINE1":"1 52871U 22062AT  23092.86614683  .00000292  00000-0  36398-4 0  9999","BSTAR":"0.00003639800000","ELEMENT_SET_NO":"999","OBJECT_TYPE":"PAYLOAD","DECAY_DATE":null,"APOAPSIS":"540.048","EPOCH":"2023-04-02T20:47:15.086112","PERIAPSIS":"539.455","CLASSIFICATION_TYPE":"U","RA_OF_ASC_NODE":"145.7265","FILE":"3878366","ARG_OF_PERICENTER":"203.6355","COUNTRY_CODE":"US","GP_ID":"229328311","MEAN_ELEMENT_THEORY":"SGP4","MEAN_MOTION":"15.08837955","MEAN_MOTION_DOT":"0.00000292","MEAN_MOTION_DDOT":"0.0000000000000","SITE":"AFETR","INCLINATION":"53.2159","CENTER_NAME":"EARTH","REF_FRAME":"TEME"},{"REF_FRAME":"TEME","CENTER_NAME":"EARTH","INCLINATION":"53.2165","SITE":"AFETR","MEAN_MOTION_DOT":"0.00008135","MEAN_MOTION_DDOT":"0.0000000000000","MEAN_MOTION":"15.08856517","MEAN_ELEMENT_THEORY":"SGP4","GP_ID":"229328582","COUNTRY_CODE":"US","ARG_OF_PERICENTER":"83.1504","FILE":"3878366","RA_OF_ASC_NODE":"145.6923","CLASSIFICATION_TYPE":"U","PERIAPSIS":"538.850","APOAPSIS":"540.540","EPOCH":"2023-04-02T20:57:51.177600","DECAY_DATE":null,"OBJECT_TYPE":"PAYLOAD","ELEMENT_SET_NO":"999","BSTAR":"0.00052837000000","TLE_LINE1":"1 52872U 22062AU  23092.87350900  .00008135  00000-0  52837-3 0  9999","ECCENTRICITY":"0.00012210","TLE_LINE2":"2 52872  53.2165 145.6923 0001221  83.1504 276.9627 15.08856517 44749","OBJECT_ID":"2022-062AU","REV_AT_EPOCH":"4474","EPHEMERIS_TYPE":"0","PERIOD":"95.437","SEMIMAJOR_AXIS":"6917.830","OBJECT_NAME":"STARLINK-4213","RCS_SIZE":"LARGE","MEAN_ANOMALY":"276.9627","TIME_SYSTEM":"UTC","NORAD_CAT_ID":"52872","LAUNCH_DATE":"2022-06-17"},{"INCLINATION":"53.2147","CENTER_NAME":"EARTH","REF_FRAME":"TEME","MEAN_ELEMENT_THEORY":"SGP4","MEAN_MOTION":"15.08839400","MEAN_MOTION_DOT":"0.00000568","MEAN_MOTION_DDOT":"0.0000000000000","SITE":"AFETR","FILE":"3878366","ARG_OF_PERICENTER":"127.1323","COUNTRY_CODE":"US","GP_ID":"229328307","APOAPSIS":"539.993","EPOCH":"2023-04-02T20:36:39.246912","PERIAPSIS":"539.502","CLASSIFICATION_TYPE":"U","RA_OF_ASC_NODE":"145.7588","BSTAR":"0.00005377200000","ELEMENT_SET_NO":"999","OBJECT_TYPE":"PAYLOAD","DECAY_DATE":null,"REV_AT_EPOCH":"4474","EPHEMERIS_TYPE":"0","OBJECT_ID":"2022-062AV","TLE_LINE2":"2 52873  53.2147 145.7588 0000355 127.1323 232.9701 15.08839400 44740","ECCENTRICITY":"0.00003550","TLE_LINE1":"1 52873U 22062AV  23092.85878758  .00000568  00000-0  53772-4 0  9996","OBJECT_NAME":"STARLINK-4211","RCS_SIZE":"LARGE","PERIOD":"95.438","SEMIMAJOR_AXIS":"6917.882","LAUNCH_DATE":"2022-06-17","NORAD_CAT_ID":"52873","TIME_SYSTEM":"UTC","MEAN_ANOMALY":"232.9701"},{"SITE":"AFETR","MEAN_MOTION":"15.08852310","MEAN_MOTION_DDOT":"0.0000000000000","MEAN_MOTION_DOT":"-0.00000802","MEAN_ELEMENT_THEORY":"SGP4","REF_FRAME":"TEME","CENTER_NAME":"EARTH","INCLINATION":"53.2168","CLASSIFICATION_TYPE":"U","RA_OF_ASC_NODE":"145.7045","PERIAPSIS":"538.768","EPOCH":"2023-04-02T20:52:32.911968","APOAPSIS":"540.648","GP_ID":"229352765","COUNTRY_CODE":"US","ARG_OF_PERICENTER":"82.8005","FILE":"3878419","TLE_LINE1":"1 52874U 22062AW  23092.86982537 -.00000802  00000-0 -32260-4 0  9991","TLE_LINE2":"2 52874  53.2168 145.7045 0001359  82.8005 277.3141 15.08852310 44253","ECCENTRICITY":"0.00013590","OBJECT_ID":"2022-062AW","REV_AT_EPOCH":"4425","EPHEMERIS_TYPE":"0","OBJECT_TYPE":"PAYLOAD","DECAY_DATE":null,"ELEMENT_SET_NO":"999","BSTAR":"-0.00003226000000","MEAN_ANOMALY":"277.3141","NORAD_CAT_ID":"52874","TIME_SYSTEM":"UTC","LAUNCH_DATE":"2022-06-17","PERIOD":"95.437","SEMIMAJOR_AXIS":"6917.843","RCS_SIZE":"LARGE","OBJECT_NAME":"STARLINK-4210"},{"EPHEMERIS_TYPE":"0","REV_AT_EPOCH":"4420","OBJECT_ID":"2022-062AX","ECCENTRICITY":"0.00010560","TLE_LINE2":"2 52875  53.2148 147.2607 0001056  84.0819 276.0293 15.08859662 44200","TLE_LINE1":"1 52875U 22062AX  23092.52391770  .00025836  00000-0  16346-2 0  9995","BSTAR":"0.00163460000000","ELEMENT_SET_NO":"999","OBJECT_TYPE":"PAYLOAD","DECAY_DATE":null,"LAUNCH_DATE":"2022-06-17","TIME_SYSTEM":"UTC","NORAD_CAT_ID":"52875","MEAN_ANOMALY":"276.0293","RCS_SIZE":"LARGE","OBJECT_NAME":"STARLINK-4193","SEMIMAJOR_AXIS":"6917.820","PERIOD":"95.436","MEAN_ELEMENT_THEORY":"SGP4","MEAN_MOTION_DOT":"0.00025836","MEAN_MOTION_DDOT":"0.0000000000000","MEAN_MOTION":"15.08859662","SITE":"AFETR","INCLINATION":"53.2148","CENTER_NAME":"EARTH","REF_FRAME":"TEME","APOAPSIS":"540.416","EPOCH":"2023-04-02T12:34:26.489280","PERIAPSIS":"538.955","RA_OF_ASC_NODE":"147.2607","CLASSIFICATION_TYPE":"U","FILE":"3878126","ARG_OF_PERICENTER":"84.0819","COUNTRY_CODE":"US","GP_ID":"229319530"},{"ARG_OF_PERICENTER":"152.1358","FILE":"3878419","GP_ID":"229353744","COUNTRY_CODE":"US","PERIAPSIS":"539.387","EPOCH":"2023-04-02T20:41:57.228288","APOAPSIS":"540.148","RA_OF_ASC_NODE":"145.7428","CLASSIFICATION_TYPE":"U","INCLINATION":"53.2157","REF_FRAME":"TEME","CENTER_NAME":"EARTH","MEAN_MOTION_DDOT":"0.0000000000000","MEAN_MOTION_DOT":"-0.00002596","MEAN_MOTION":"15.08832720","MEAN_ELEMENT_THEORY":"SGP4","SITE":"AFETR","OBJECT_NAME":"STARLINK-4200","RCS_SIZE":"LARGE","SEMIMAJOR_AXIS":"6917.903","PERIOD":"95.438","LAUNCH_DATE":"2022-06-17","MEAN_ANOMALY":"207.9664","TIME_SYSTEM":"UTC","NORAD_CAT_ID":"52876","ELEMENT_SET_NO":"999","BSTAR":"-0.00014514000000","OBJECT_TYPE":"PAYLOAD","DECAY_DATE":null,"OBJECT_ID":"2022-062AY","REV_AT_EPOCH":"4425","EPHEMERIS_TYPE":"0","TLE_LINE1":"1 52876U 22062AY  23092.86246792 -.00002596  00000-0 -14514-3 0  9992","ECCENTRICITY":"0.00005500","TLE_LINE2":"2 52876  53.2157 145.7428 0000550 152.1358 207.9664 15.08832720 44254"},{"SEMIMAJOR_AXIS":"6917.859","PERIOD":"95.437","RCS_SIZE":"LARGE","OBJECT_NAME":"STARLINK-4214","TIME_SYSTEM":"UTC","NORAD_CAT_ID":"52877","MEAN_ANOMALY":"254.0754","LAUNCH_DATE":"2022-06-17","OBJECT_TYPE":"PAYLOAD","DECAY_DATE":null,"BSTAR":"0.00021199000000","ELEMENT_SET_NO":"999","ECCENTRICITY":"0.00011460","TLE_LINE2":"2 52877  53.2176 145.8923 0001146 106.0365 254.0754 15.08847119 44256","TLE_LINE1":"1 52877U 22062AZ  23092.82934813  .00003088  00000-0  21199-3 0  9999","REV_AT_EPOCH":"4425","EPHEMERIS_TYPE":"0","OBJECT_ID":"2022-062AZ","COUNTRY_CODE":"US","GP_ID":"229352015","FILE":"3878419","ARG_OF_PERICENTER":"106.0365","RA_OF_ASC_NODE":"145.8923","CLASSIFICATION_TYPE":"U","EPOCH":"2023-04-02T19:54:15.678432","APOAPSIS":"540.516","PERIAPSIS":"538.931","CENTER_NAME":"EARTH","REF_FRAME":"TEME","INCLINATION":"53.2176","SITE":"AFETR","MEAN_ELEMENT_THEORY":"SGP4","MEAN_MOTION_DOT":"0.00003088","MEAN_MOTION_DDOT":"0.0000000000000","MEAN_MOTION":"15.08847119"},{"COUNTRY_CODE":"US","GP_ID":"229352265","FILE":"3878419","ARG_OF_PERICENTER":"94.1203","CLASSIFICATION_TYPE":"U","RA_OF_ASC_NODE":"145.7894","APOAPSIS":"540.644","EPOCH":"2023-04-02T20:26:03.531264","PERIAPSIS":"538.819","CENTER_NAME":"EARTH","REF_FRAME":"TEME","INCLINATION":"53.2171","SITE":"AFETR","MEAN_ELEMENT_THEORY":"SGP4","MEAN_MOTION":"15.08844684","MEAN_MOTION_DOT":"0.00004283","MEAN_MOTION_DDOT":"0.0000000000000","SEMIMAJOR_AXIS":"6917.866","PERIOD":"95.437","RCS_SIZE":"LARGE","OBJECT_NAME":"STARLINK-4171","NORAD_CAT_ID":"52878","TIME_SYSTEM":"UTC","MEAN_ANOMALY":"265.9940","LAUNCH_DATE":"2022-06-17","DECAY_DATE":null,"OBJECT_TYPE":"PAYLOAD","BSTAR":"0.00028698000000","ELEMENT_SET_NO":"999","TLE_LINE2":"2 52878  53.2171 145.7894 0001319  94.1203 265.9940 15.08844684 44250","ECCENTRICITY":"0.00013190","TLE_LINE1":"1 52878U 22062BA  23092.85142976  .00004283  00000-0  28698-3 0  9993","REV_AT_EPOCH":"4425","EPHEMERIS_TYPE":"0","OBJECT_ID":"2022-062BA"},{"BSTAR":"0.00132750000000","ELEMENT_SET_NO":"999","DECAY_DATE":null,"OBJECT_TYPE":"PAYLOAD","REV_AT_EPOCH":"4422","EPHEMERIS_TYPE":"0","OBJECT_ID":"2022-062BB","TLE_LINE2":"2 52879  53.2153 146.8319 0001704  75.8609 284.2573 15.08866077 44222","ECCENTRICITY":"0.00017040","TLE_LINE1":"1 52879U 22062BB  23092.61958985  .00020917  00000-0  13275-2 0  9999","OBJECT_NAME":"STARLINK-4139","RCS_SIZE":"LARGE","PERIOD":"95.436","SEMIMAJOR_AXIS":"6917.801","LAUNCH_DATE":"2022-06-17","NORAD_CAT_ID":"52879","TIME_SYSTEM":"UTC","MEAN_ANOMALY":"284.2573","INCLINATION":"53.2153","CENTER_NAME":"EARTH","REF_FRAME":"TEME","MEAN_ELEMENT_THEORY":"SGP4","MEAN_MOTION":"15.08866077","MEAN_MOTION_DDOT":"0.0000000000000","MEAN_MOTION_DOT":"0.00020917","SITE":"AFETR","FILE":"3878419","ARG_OF_PERICENTER":"75.8609","COUNTRY_CODE":"US","GP_ID":"229353516","EPOCH":"2023-04-02T14:52:12.563040","APOAPSIS":"540.844","PERIAPSIS":"538.487","CLASSIFICATION_TYPE":"U","RA_OF_ASC_NODE":"146.8319"}];
